NORAD_CAT_ID,OBJECT_NAME,OBJECT_TYPE,EPOCH,MEAN_MOTION,ECCENTRICITY,INCLINATION,RA_OF_ASC_NODE,ARG_OF_PERICENTER,MEAN_ANOMALY,BSTAR,MEAN_MOTION_DOT,MEAN_MOTION_DDOT,TLE_LINE0,TLE_LINE1,TLE_LINE2,SEMIMAJOR_AXIS,PERIOD,APOGEE,PERIGEE,DECAYED
52610.0,STARLINK-3998,PAYLOAD,2023-06-25 07:38:39,15.08844681,0.0001005,53.2173,41.0923,89.1379,270.9729,2.3631e-05,8.8e-07,0.0,0 STARLINK-3998,1 52610U 22052N   23176.31851440  .00000088  00000-0  23631-4 0  9995,2 52610  53.2173  41.0923 0001005  89.1379 270.9729 15.08844681 61940,6917.866,95.437,540.426,539.036,0.0
52610.0,STARLINK-3998,PAYLOAD,2023-06-26 01:07:54,15.08841541,0.0001263,53.2186,37.8233,73.6303,286.4827,9.4796e-05,1.221e-05,0.0,0 STARLINK-3998,1 52610U 22052N   23177.04715973  .00001221  00000-0  94796-4 0  9996,2 52610  53.2186  37.8233 0001263  73.6303 286.4827 15.08841541 62058,6917.876,95.437,540.614,538.867,0.0
52610.0,STARLINK-3998,PAYLOAD,2023-06-26 07:29:27,15.08836183,0.0001344,53.2187,36.6321,85.0932,275.0214,-1.1101e-05,-4.65e-06,0.0,0 STARLINK-3998,1 52610U 22052N   23177.31212528 -.00000465  00000-0 -11101-4 0  9994,2 52610  53.2187  36.6321 0001344  85.0932 275.0214 15.08836183 62093,6917.892,95.438,540.687,538.827,0.0
52610.0,STARLINK-3998,PAYLOAD,2023-06-27 20:03:19,15.08842684,0.0001156,53.2179,29.792,81.9068,278.2055,7.526e-05,9.1e-06,0.0,0 STARLINK-3998,1 52610U 22052N   23178.83564205  .00000910  00000-0  75260-4 0  9993,2 52610  53.2179  29.7920 0001156  81.9068 278.2055 15.08842684 62325,6917.872,95.437,540.537,538.937,0.0
52610.0,STARLINK-3998,PAYLOAD,2023-06-28 18:18:44,15.08833844,0.0001282,53.218,25.6266,76.0946,284.0189,5.8873e-05,6.49e-06,0.0,0 STARLINK-3998,1 52610U 22052N   23179.76300997  .00000649  00000-0  58873-4 0  9992,2 52610  53.2180  25.6266 0001282  76.0946 284.0189 15.08833844 62461,6917.899,95.438,540.651,538.877,0.0
52610.0,STARLINK-3998,PAYLOAD,2023-06-29 00:40:16,15.08842262,0.0001145,53.2183,24.4389,87.3113,272.8011,4.8581e-05,4.85e-06,0.0,0 STARLINK-3998,1 52610U 22052N   23180.02796477  .00000485  00000-0  48581-4 0  9998,2 52610  53.2183  24.4389 0001145  87.3113 272.8011 15.08842262 62504,6917.873,95.437,540.531,538.946,0.0
52610.0,STARLINK-3998,PAYLOAD,2023-07-01 17:51:05,15.08838053,0.0001223,53.2189,12.2483,88.7401,271.3731,-3.1226e-05,-7.85e-06,0.0,0 STARLINK-3998,1 52610U 22052N   23182.74380905 -.00000785  00000-0 -31226-4 0  9997,2 52610  53.2189  12.2483 0001223  88.7401 271.3731 15.08838053 62913,6917.886,95.438,540.597,538.905,0.0
52610.0,STARLINK-3998,PAYLOAD,2023-07-02 22:28:01,15.08843575,0.0001063,53.2181,6.8953,84.0894,276.022,7.0826e-05,8.4e-06,0.0,0 STARLINK-3998,1 52610U 22052N   23183.93612407  .00000840  00000-0  70826-4 0  9993,2 52610  53.2181   6.8953 0001063  84.0894 276.0220 15.08843575 63093,6917.869,95.437,540.47,538.999,0.0
52610.0,STARLINK-3998,PAYLOAD,2023-07-03 11:11:06,15.08839219,0.0001169,53.2183,4.5164,81.198,278.9145,-1.1416e-05,-4.69e-06,0.0,0 STARLINK-3998,1 52610U 22052N   23184.46604912 -.00000469  00000-0 -11416-4 0  9993,2 52610  53.2183   4.5164 0001169  81.1980 278.9145 15.08839219 63171,6917.883,95.438,540.556,538.939,0.0
52610.0,STARLINK-3998,PAYLOAD,2023-07-03 22:18:48,15.08845692,0.000106,53.2183,2.4349,90.5696,269.5417,0.00010944,1.455e-05,0.0,0 STARLINK-3998,1 52610U 22052N   23184.92972223  .00001455  00000-0  10944-3 0  9995,2 52610  53.2183   2.4349 0001060  90.5696 269.5417 15.08845692 63249,6917.863,95.437,540.461,538.995,0.0
52610.0,STARLINK-3998,PAYLOAD,2023-07-04 15:48:03,15.08832174,0.0001067,53.2183,359.1643,90.5992,269.5122,4.0257e-05,3.53e-06,0.0,0 STARLINK-3998,1 52610U 22052N   23185.65837443  .00000353  00000-0  40257-4 0  9997,2 52610  53.2183 359.1643 0001067  90.5992 269.5122 15.08832174 63350,6917.904,95.438,540.507,539.031,0.0
52610.0,STARLINK-3998,PAYLOAD,2023-07-04 22:09:35,15.08845689,0.0001034,53.218,357.974,86.7985,273.3125,8.0693e-05,9.97e-06,0.0,0 STARLINK-3998,1 52610U 22052N   23185.92332508  .00000997  00000-0  80693-4 0  9991,2 52610  53.2180 357.9740 0001034  86.7985 273.3125 15.08845689 63399,6917.863,95.437,540.443,539.013,0.0
52610.0,STARLINK-3998,PAYLOAD,2023-07-05 04:31:08,15.0884005,0.0001183,53.2191,356.7826,77.4728,282.6397,3.1882e-05,2.2e-06,0.0,0 STARLINK-3998,1 52610U 22052N   23186.18829035  .00000220  00000-0  31882-4 0  9991,2 52610  53.2191 356.7826 0001183  77.4728 282.6397 15.08840050 63436,6917.88,95.438,540.564,538.927,0.0
52610.0,STARLINK-3998,PAYLOAD,2023-07-06 10:43:28,15.0884142,0.0001048,53.2184,351.1352,90.3485,269.7627,4.6083e-05,4.46e-06,0.0,0 STARLINK-3998,1 52610U 22052N   23187.44685197  .00000446  00000-0  46083-4 0  9999,2 52610  53.2184 351.1352 0001048  90.3485 269.7627 15.08841420 63620,6917.876,95.437,540.466,539.016,0.0
52610.0,STARLINK-3998,PAYLOAD,2023-07-07 16:55:47,15.0884164,9.88e-05,53.2176,345.4862,87.7961,272.3144,0.00012792,1.749e-05,0.0,0 STARLINK-3998,1 52610U 22052N   23188.70540969  .00001749  00000-0  12792-3 0  9992,2 52610  53.2176 345.4862 0000988  87.7961 272.3144 15.08841640 63813,6917.875,95.437,540.424,539.057,0.0
52610.0,STARLINK-3998,PAYLOAD,2023-07-07 21:41:56,15.08852022,0.0001025,53.2183,344.594,87.7626,272.3483,0.00014888,2.083e-05,0.0,0 STARLINK-3998,1 52610U 22052N   23188.90412234  .00002083  00000-0  14888-3 0  9997,2 52610  53.2183 344.5940 0001025  87.7626 272.3483 15.08852022 63844,6917.844,95.437,540.418,539.0,0.0
52610.0,STARLINK-3998,PAYLOAD,2023-07-08 10:25:02,15.08840352,0.0001104,53.217,342.2142,90.0899,270.022,8.3096e-05,1.035e-05,0.0,0 STARLINK-3998,1 52610U 22052N   23189.43405134  .00001035  00000-0  83096-4 0  9991,2 52610  53.2170 342.2142 0001104  90.0899 270.0220 15.08840352 63922,6917.879,95.438,540.508,538.981,0.0
52610.0,STARLINK-3998,PAYLOAD,2023-07-08 21:32:43,15.08850805,0.000101,53.2182,340.1329,90.5749,269.5359,0.00016112,2.278e-05,0.0,0 STARLINK-3998,1 52610U 22052N   23189.89772519  .00002278  00000-0  16112-3 0  9999,2 52610  53.2182 340.1329 0001010  90.5749 269.5359 15.08850805 63991,6917.847,95.437,540.411,539.014,0.0
52610.0,STARLINK-3998,PAYLOAD,2023-07-09 10:15:49,15.08834293,0.0001051,53.2178,337.7536,98.6081,261.503,5.8305e-05,6.4e-06,0.0,0 STARLINK-3998,1 52610U 22052N   23190.42765550  .00000640  00000-0  58305-4 0  9999,2 52610  53.2178 337.7536 0001051  98.6081 261.5030 15.08834293 64072,6917.898,95.438,540.49,539.036,0.0
52610.0,STARLINK-3998,PAYLOAD,2023-07-10 16:28:08,15.0884706,0.0001057,53.2177,332.1052,94.7438,265.3675,0.00027152,4.037e-05,0.0,0 STARLINK-3998,1 52610U 22052N   23191.68621200  .00004037  00000-0  27152-3 0  9990,2 52610  53.2177 332.1052 0001057  94.7438 265.3675 15.08847060 64266,6917.859,95.437,540.455,538.993,0.0
52610.0,STARLINK-3998,PAYLOAD,2023-07-11 02:00:27,15.08835524,0.00011,53.2176,330.3201,86.8221,273.2897,6.2606e-06,-1.88e-06,0.0,0 STARLINK-3998,1 52610U 22052N   23192.08365511 -.00000188  00000-0  62606-5 0  9994,2 52610  53.2176 330.3201 0001100  86.8221 273.2897 15.08835524 64325,6917.894,95.438,540.52,538.998,0.0
52610.0,STARLINK-3998,PAYLOAD,2023-07-12 08:12:47,15.08841225,9.63e-05,53.2172,324.6719,87.4483,272.6619,0.00024602,3.63e-05,0.0,0 STARLINK-3998,1 52610U 22052N   23193.34221650  .00003630  00000-0  24602-3 0  9995,2 52610  53.2172 324.6719 0000963  87.4483 272.6619 15.08841225 64515,6917.877,95.437,540.408,539.075,0.0
52610.0,STARLINK-3998,PAYLOAD,2023-07-13 16:00:30,15.0884292,9.64e-05,53.2165,318.7239,88.4411,271.6692,0.00032357,4.866e-05,0.0,0 STARLINK-3998,1 52610U 22052N   23194.66701882  .00004866  00000-0  32357-3 0  9999,2 52610  53.2165 318.7239 0000964  88.4411 271.6692 15.08842920 64716,6917.871,95.437,540.403,539.07,0.0
52610.0,STARLINK-3998,PAYLOAD,2023-07-15 01:23:36,15.08852378,0.0001002,53.2163,312.4779,86.1043,274.0064,0.00050164,7.707e-05,0.0,0 STARLINK-3998,1 52610U 22052N   23196.05805638  .00007707  00000-0  50164-3 0  9991,2 52610  53.2163 312.4779 0001002  86.1043 274.0064 15.08852378 64925,6917.843,95.437,540.401,539.014,0.0
52610.0,STARLINK-3998,PAYLOAD,2023-07-15 15:42:04,15.08843757,0.0001294,53.2177,309.8014,93.2312,266.8828,0.00011835,1.596e-05,0.0,0 STARLINK-3998,1 52610U 22052N   23196.65421864  .00001596  00000-0  11835-3 0  9994,2 52610  53.2177 309.8014 0001294  93.2312 266.8828 15.08843757 65012,6917.869,95.437,540.629,538.839,0.0
52610.0,STARLINK-3998,PAYLOAD,2023-07-16 09:11:19,15.08835857,0.0001588,53.2178,306.5267,153.6648,206.4425,-0.00012308,-2.246e-05,0.0,0 STARLINK-3998,1 52610U 22052N   23197.38286374 -.00002246  00000-0 -12308-3 0  9991,2 52610  53.2178 306.5267 0001588 153.6648 206.4425 15.08835857 65123,6917.893,95.438,540.857,538.659,0.0
52610.0,STARLINK-3998,PAYLOAD,2023-07-17 13:48:15,15.08850087,0.0001087,53.2173,301.1799,95.4814,264.6302,0.00018325,2.631e-05,0.0,0 STARLINK-3998,1 52610U 22052N   23198.57517898  .00002631  00000-0  18325-3 0  9992,2 52610  53.2173 301.1799 0001087  95.4814 264.6302 15.08850087 65303,6917.85,95.437,540.467,538.963,0.0
52610.0,STARLINK-3998,PAYLOAD,2023-07-18 10:28:16,15.08845396,0.000133,53.2172,297.3126,95.1093,265.0051,0.00014674,2.049e-05,0.0,0 STARLINK-3998,1 52610U 22052N   23199.43630042  .00002049  00000-0  14674-3 0  9991,2 52610  53.2172 297.3126 0001330  95.1093 265.0051 15.08845396 65436,6917.864,95.437,540.649,538.809,0.0
52610.0,STARLINK-3998,PAYLOAD,2023-07-19 10:19:03,15.08833724,0.0001682,53.2173,292.8509,110.1881,249.9292,-0.00019221,-3.345e-05,0.0,0 STARLINK-3998,1 52610U 22052N   23200.42990488 -.00003345  00000-0 -19221-3 0  9991,2 52610  53.2173 292.8509 0001682 110.1881 249.9292 15.08833724 65581,6917.9,95.438,540.928,538.601,0.0
52610.0,STARLINK-3998,PAYLOAD,2023-07-20 18:06:46,15.08852273,0.0001176,53.2166,286.9043,103.775,256.3373,0.00042889,6.547e-05,0.0,0 STARLINK-3998,1 52610U 22052N   23201.75470504  .00006547  00000-0  42889-3 0  9991,2 52610  53.2166 286.9043 0001176 103.7750 256.3373 15.08852273 65785,6917.843,95.437,540.521,538.894,0.0
